     2.11           N: GPS NAV DATA                         RINEX VERSION / TYPE
teqc  2019Feb25                         20221121 12:28:11UTCPGM / RUN BY / DATE
OSX ker:10.11.6|Core i5|gcc 4.3 -m64|OSX ker:10.10+|=+      COMMENT
    1.1176D-08  0.0000D+00 -5.9605D-08  0.0000D+00          ION ALPHA
    9.0112D+04  0.0000D+00 -1.9661D+05  0.0000D+00          ION BETA
   -3.725290298462D-09-1.687538997430D-14    61440     1553 DELTA-UTC: A0,A1,T,W
                                                            END OF HEADER
21 09 10 10  4  0  0.0-1.418869942427D-05-2.273736754432D-12 0.000000000000D+00
    9.300000000000D+01 1.053125000000D+01 5.194859243882D-09-1.815654779938D+00
    2.384185791016D-07 1.560418598820D-02 7.983297109604D-06 5.153744882584D+03
    5.328000000000D+05 1.378357410431D-07-2.763895469100D+00-1.601874828339D-07
    9.338145116598D-01 2.071562500000D+02-2.554025450646D+00-8.129981503505D-09
   -4.214461263514D-11 1.000000000000D+00 1.552000000000D+03 0.000000000000D+00
    2.000000000000D+00 0.000000000000D+00-1.210719347000D-08 9.300000000000D+01
    5.256180000000D+05 4.000000000000D+00
 2 09 10 10  4  0  0.0 1.795841380954D-04 3.524291969370D-12 0.000000000000D+00
    5.200000000000D+01 1.218750000000D+01 5.160214943665D-09 8.301018224214D-01
    6.575137376785D-07 9.119959664531D-03 8.409842848778D-06 5.153714567184D+03
    5.328000000000D+05 2.142041921616D-07-2.794335180922D+00 6.332993507385D-08
    9.411017805981D-01 2.078750000000D+02 2.902581716613D+00-8.186769583243D-09
   -2.675111429129D-10 1.000000000000D+00 1.552000000000D+03 0.000000000000D+00
    2.000000000000D+00 0.000000000000D+00-1.722946763039D-08 5.200000000000D+01
    5.256180000000D+05 4.000000000000D+00
15 09 10 10  4  0  0.0-3.199726343155D-04-4.547473508865D-13 0.000000000000D+00
    3.500000000000D+01 5.700000000000D+01 4.853773607725D-09 1.636903712021D+00
    3.034248948097D-06 1.805862062611D-03 3.065913915634D-06 5.153675270081D+03
    5.328000000000D+05 3.725290298462D-08-7.004915610967D-01-9.872019290924D-08
    9.555479971524D-01 3.129687500000D+02-5.162403469112D-01-8.497853969727D-09
   -6.821712723145D-11 1.000000000000D+00 1.552000000000D+03 0.000000000000D+00
    2.000000000000D+00 0.000000000000D+00-9.778887033463D-09 3.500000000000D+01
    5.263080000000D+05 4.000000000000D+00
10 09 10 10  3 59 44.0-2.549262717366D-05-9.094947017729D-13 0.000000000000D+00
    2.000000000000D+00 1.050000000000D+02 4.667337270474D-09 1.916395848071D+00
    5.463138222694D-06 8.601397392340D-03 9.002164006233D-06 5.153386892319D+03
    5.327840000000D+05-2.682209014893D-07-1.709253416968D+00 3.166496753693D-08
    9.562069715271D-01 2.041562500000D+02 6.171962899143D-01-8.084622471263D-09
   -9.321816862518D-11 1.000000000000D+00 1.552000000000D+03 0.000000000000D+00
    2.000000000000D+00 0.000000000000D+00-2.793967723846D-09 2.000000000000D+00
    5.284980000000D+05 4.000000000000D+00
 6 09 10 10  4  0  0.0 2.510421909392D-04 4.547473508865D-12 0.000000000000D+00
    1.100000000000D+01-2.312500000000D+00 5.257361847366D-09 2.890214663602D+00
   -1.881271600723D-07 5.798153695650D-03 7.098540663719D-06 5.153694133759D+03
    5.328000000000D+05 8.195638656616D-08 2.408512548581D+00 3.911554813385D-08
    9.340088310683D-01 2.263437500000D+02-1.235124003758D+00-8.247129240322D-09
    2.185805333280D-10 1.000000000000D+00 1.552000000000D+03 0.000000000000D+00
    2.000000000000D+00 0.000000000000D+00-5.122274160385D-09 1.100000000000D+01
    5.292180000000D+05 4.000000000000D+00
 3 09 10 10  3 59 44.0 4.585450515151D-04 5.343281372916D-12 0.000000000000D+00
    1.100000000000D+01-7.187500000000D-01 5.499871948886D-09 5.650642181528D-01
    1.676380634308D-08 1.255227182992D-02 7.230788469315D-06 5.153653970718D+03
    5.327840000000D+05-2.086162567139D-07 2.339799578981D+00 1.192092895508D-07
    9.265297852731D-01 2.239375000000D+02 9.509961772880D-01-8.604644132252D-09
    1.685784505406D-10 1.000000000000D+00 1.552000000000D+03 0.000000000000D+00
    2.000000000000D+00 0.000000000000D+00-4.656612873077D-09 1.100000000000D+01
    5.303580000000D+05 4.000000000000D+00
18 09 10 10  4  0  0.0 1.904740929604D-05 2.842170943040D-12 0.000000000000D+00
    1.000000000000D+01 8.409375000000D+01 4.894846747157D-09-3.032624012757D+00
    4.291534423828D-06 1.092801301274D-02 8.262693881989D-06 5.153637836456D+03
    5.328000000000D+05-9.313225746155D-09-1.705874774017D+00-1.713633537292D-07
    9.402286803671D-01 2.088750000000D+02-2.370514404251D+00-8.048192382375D-09
   -7.643175511796D-11 1.000000000000D+00 1.552000000000D+03 0.000000000000D+00
    2.000000000000D+00 0.000000000000D+00-1.071020960808D-08 1.000000000000D+01
    5.307480000000D+05 4.000000000000D+00
15 09 10 10  6  0  0.0-3.199758939445D-04-4.547473508865D-13 0.000000000000D+00
    3.600000000000D+01 6.034375000000D+01 4.934848413387D-09 2.687721936213D+00
    3.194436430931D-06 1.806771964766D-03 2.736225724220D-06 5.153672534943D+03
    5.400000000000D+05-5.587935447693D-09-7.005535463986D-01 8.381903171539D-08
    9.555481083342D-01 3.231875000000D+02-5.168747223183D-01-8.483567660360D-09
    8.750364487804D-11 1.000000000000D+00 1.552000000000D+03 0.000000000000D+00
    2.000000000000D+00 0.000000000000D+00-9.778887033463D-09 3.600000000000D+01
    5.328180000000D+05 4.000000000000D+00
21 09 10 10  6  0  0.0-1.420546323061D-05-2.273736754432D-12 0.000000000000D+00
    9.400000000000D+01 1.700000000000D+01 5.266290790721D-09-7.655707167961D-01
    1.084059476852D-06 1.560420251917D-02 7.903203368187D-06 5.153743179321D+03
    5.400000000000D+05 2.868473529816D-07-2.763953587910D+00 1.769512891769D-07
    9.338125689046D-01 2.103125000000D+02-2.553967002680D+00-8.421065056875D-09
   -2.228664261384D-10 1.000000000000D+00 1.552000000000D+03 0.000000000000D+00
    2.800000000000D+00 0.000000000000D+00-1.210719347000D-08 9.400000000000D+01
    5.328180000000D+05 4.000000000000D+00
 8 09 10 10  6  0  0.0-2.245260402560D-04-1.705302565824D-12 0.000000000000D+00
    6.000000000000D+01-8.150000000000D+01 3.889090567661D-09-4.760578274337D-01
   -4.423782229424D-06 1.098958717193D-02 5.859881639481D-06 5.153618953705D+03
    5.400000000000D+05 1.303851604462D-07 4.257420635573D-01-1.080334186554D-07
    9.905341643181D-01 2.810937500000D+02 3.036765356826D+00-7.937116327040D-09
   -1.592923494515D-10 1.000000000000D+00 1.552000000000D+03 0.000000000000D+00
    2.000000000000D+00 0.000000000000D+00-3.725290298462D-09 6.000000000000D+01
    5.328180000000D+05 4.000000000000D+00
 5 09 10 10  6  0  0.0-6.903940811753D-05 9.094947017729D-12 0.000000000000D+00
    1.040000000000D+02 1.051562500000D+02 4.442685055665D-09-3.036758898043D+00
    5.494803190231D-06 1.510670292191D-03 8.728355169296D-06 5.153577701569D+03
    5.400000000000D+05-2.793967723846D-08-1.736364431325D+00-3.911554813385D-08
    9.611398683849D-01 2.142187500000D+02 2.282984545527D-01-7.914258232051D-09
   -5.750239520557D-11 1.000000000000D+00 1.552000000000D+03 0.000000000000D+00
    2.800000000000D+00 0.000000000000D+00-9.313225746155D-09 1.040000000000D+02
    5.328180000000D+05 4.000000000000D+00
10 09 10 10  5 59 44.0-2.549914643168D-05-9.094947017729D-13 0.000000000000D+00
    9.000000000000D+00 1.094062500000D+02 4.480900933224D-09 2.966705393702D+00
    5.586072802544D-06 8.600329980254D-03 8.650124073029D-06 5.153388877869D+03
    5.399840000000D+05-6.146728992462D-08-1.709310906723D+00-1.303851604462D-07
    9.562075332876D-01 2.129687500000D+02 6.172434148944D-01-7.851755628567D-09
   -5.250218692682D-11 1.000000000000D+00 1.552000000000D+03 0.000000000000D+00
    2.000000000000D+00 0.000000000000D+00-2.793967723846D-09 9.000000000000D+00
    5.328180000000D+05 4.000000000000D+00
 7 09 10 10  6  0  0.0 9.904615581036D-06-6.821210263297D-13 0.000000000000D+00
    3.100000000000D+01-8.140625000000D+01 4.379110978978D-09 1.735668636766D-01
   -4.483386874199D-06 3.190436633304D-03 5.476176738739D-06 5.153648635864D+03
    5.400000000000D+05 5.587935447693D-09 3.626115279056D-01-1.117587089539D-08
    9.692996392207D-01 2.771250000000D+02 2.979682476238D+00-8.126409926164D-09
   -2.142946405177D-10 1.000000000000D+00 1.552000000000D+03 0.000000000000D+00
    2.000000000000D+00 0.000000000000D+00-1.071020960808D-08 3.100000000000D+01
    5.328180000000D+05 4.000000000000D+00
 3 09 10 10  6  0  0.0 4.585837014019D-04 5.343281372916D-12 0.000000000000D+00
    2.200000000000D+01-1.365625000000D+01 5.419154300957D-09 1.617435139706D+00
   -8.083879947662D-07 1.255334576126D-02 7.797032594681D-06 5.153658348083D+03
    5.400000000000D+05-2.980232238770D-07 2.339737265986D+00-8.940696716309D-08
    9.265311472499D-01 2.143750000000D+02 9.511576834439D-01-8.510711648159D-09
    2.025084352892D-10 1.000000000000D+00 1.552000000000D+03 0.000000000000D+00
    2.000000000000D+00 0.000000000000D+00-4.656612873077D-09 2.200000000000D+01
    5.328180000000D+05 4.000000000000D+00
18 09 10 10  6  0  0.0 1.906836405396D-05 2.842170943040D-12 0.000000000000D+00
    2.200000000000D+01 9.134375000000D+01 4.848059083978D-09-1.982375840928D+00
    4.619359970093D-06 1.092685165349D-02 8.486211299896D-06 5.153640098572D+03
    5.400000000000D+05 1.005828380585D-07-1.705933497012D+00-7.078051567078D-08
    9.402285004282D-01 2.020000000000D+02-2.370557890954D+00-8.084622471263D-09
    3.357282701443D-11 1.000000000000D+00 1.552000000000D+03 0.000000000000D+00
    2.000000000000D+00 0.000000000000D+00-1.071020960808D-08 2.200000000000D+01
    5.328180000000D+05 4.000000000000D+00
